NORAD_CAT_ID,OBJECT_NAME,OBJECT_TYPE,EPOCH,MEAN_MOTION,ECCENTRICITY,INCLINATION,RA_OF_ASC_NODE,ARG_OF_PERICENTER,MEAN_ANOMALY,BSTAR,MEAN_MOTION_DOT,MEAN_MOTION_DDOT,TLE_LINE0,TLE_LINE1,TLE_LINE2,SEMIMAJOR_AXIS,PERIOD,APOGEE,PERIGEE,DECAYED
53886.0,STARLINK-5028,PAYLOAD,2023-12-02 13:43:11,15.08867336,0.0001578,53.2167,81.9239,73.9223,286.1943,0.00048556,7.454e-05,0.0,0 STARLINK-5028,1 53886U 22119A   23336.57166165  .00007454  00000-0  48556-3 0  9990,2 53886  53.2167  81.9239 0001578  73.9223 286.1943 15.08867336 66669,6917.797,95.436,540.753,538.57,0.0
53886.0,STARLINK-5028,PAYLOAD,2023-12-03 11:58:37,15.08803878,0.0001535,53.2183,77.7604,76.0668,284.0495,-0.00079739,-0.00012943,0.0,0 STARLINK-5028,1 53886U 22119A   23337.49904438 -.00012943  00000-0 -79739-3 0  9993,2 53886  53.2183  77.7604 0001535  76.0668 284.0495 15.08803878 66385,6917.991,95.44,540.918,538.794,0.0
53886.0,STARLINK-5028,PAYLOAD,2023-12-03 13:34:00,15.08803761,0.0001536,53.2185,77.4626,83.0278,277.0889,-0.00074196,-0.00012065,0.0,0 STARLINK-5028,1 53886U 22119A   23337.56528559 -.00012065  00000-0 -74196-3 0  9994,2 53886  53.2185  77.4626 0001536  83.0278 277.0889 15.08803761 66812,6917.991,95.44,540.919,538.794,0.0
53886.0,STARLINK-5028,PAYLOAD,2023-12-04 11:49:25,15.08829205,0.0001647,53.2181,73.2987,83.2834,276.8346,0.00019654,2.84e-05,0.0,0 STARLINK-5028,1 53886U 22119A   23338.49265318  .00002840  00000-0  19654-3 0  9994,2 53886  53.2181  73.2987 0001647  83.2834 276.8346 15.08829205 66530,6917.913,95.438,540.918,538.639,0.0
53886.0,STARLINK-5028,PAYLOAD,2023-12-04 13:24:48,15.08831041,0.0001603,53.2184,73.0006,85.2484,274.8691,0.00026401,3.915e-05,0.0,0 STARLINK-5028,1 53886U 22119A   23338.55889348  .00003915  00000-0  26401-3 0  9998,2 53886  53.2184  73.0006 0001603  85.2484 274.8691 15.08831041 66967,6917.908,95.438,540.882,538.664,0.0
53886.0,STARLINK-5028,PAYLOAD,2023-12-05 11:40:11,15.08883138,0.0001665,53.2179,68.838,62.1158,298.0003,0.0013331,0.00021017,0.0,0 STARLINK-5028,1 53886U 22119A   23339.48624698  .00021017  00000-0  13331-2 0  9996,2 53886  53.2179  68.8380 0001665  62.1158 298.0003 15.08883138 66686,6917.749,95.435,540.765,538.462,0.0
53886.0,STARLINK-5028,PAYLOAD,2023-12-06 11:30:57,15.08857499,0.000255,53.2182,64.3788,142.5094,217.6076,0.00094443,0.00014782,0.0,0 STARLINK-5028,1 53886U 22119A   23340.47983682  .00014782  00000-0  94443-3 0  9993,2 53886  53.2182  64.3788 0002550 142.5094 217.6076 15.08857499 66834,6917.827,95.436,541.456,537.928,0.0
53886.0,STARLINK-5028,PAYLOAD,2023-12-06 13:06:21,15.08848285,0.0001811,53.2182,64.081,59.9532,300.164,0.00011723,1.579e-05,0.0,0 STARLINK-5028,1 53886U 22119A   23340.54608109  .00001579  00000-0  11723-3 0  9999,2 53886  53.2182  64.0810 0001811  59.9532 300.1640 15.08848285 67260,6917.855,95.437,540.973,538.467,0.0
53886.0,STARLINK-5028,PAYLOAD,2023-12-07 11:21:46,15.0883383,0.000212,53.2182,59.9225,53.2127,306.906,0.00015496,2.178e-05,0.0,0 STARLINK-5028,1 53886U 22119A   23341.47345010  .00002178  00000-0  15496-3 0  9998,2 53886  53.2182  59.9225 0002120  53.2127 306.9060 15.08833830 66982,6917.899,95.438,541.231,538.298,0.0
53886.0,STARLINK-5028,PAYLOAD,2023-12-07 14:32:32,15.08828958,0.0001945,53.218,59.3239,67.6979,292.4219,0.00032329,4.859e-05,0.0,0 STARLINK-5028,1 53886U 22119A   23341.60593352  .00004859  00000-0  32329-3 0  9999,2 53886  53.2180  59.3239 0001945  67.6979 292.4219 15.08828958 67427,6917.914,95.438,541.125,538.434,0.0
53886.0,STARLINK-5028,PAYLOAD,2023-12-08 14:23:19,15.08846739,0.0001878,53.2188,54.8621,63.4021,296.7164,0.00022316,3.266e-05,0.0,0 STARLINK-5028,1 53886U 22119A   23342.59952561  .00003266  00000-0  22316-3 0  9995,2 53886  53.2188  54.8621 0001878  63.4021 296.7164 15.08846739 67576,6917.86,95.437,541.024,538.426,0.0
53886.0,STARLINK-5028,PAYLOAD,2023-12-09 11:03:20,15.08840419,0.0001698,53.2187,50.9931,73.8563,286.2616,9.3199e-05,1.196e-05,0.0,0 STARLINK-5028,1 53886U 22119A   23343.46064854  .00001196  00000-0  93199-4 0  9999,2 53886  53.2187  50.9931 0001698  73.8563 286.2616 15.08840419 67285,6917.879,95.438,540.919,538.569,0.0
53886.0,STARLINK-5028,PAYLOAD,2023-12-11 10:44:54,15.08848201,0.0001704,53.2184,42.0762,72.3386,287.7792,0.00018545,2.665e-05,0.0,0 STARLINK-5028,1 53886U 22119A   23345.44785492  .00002665  00000-0  18545-3 0  9990,2 53886  53.2184  42.0762 0001704  72.3386 287.7792 15.08848201 67582,6917.855,95.437,540.899,538.542,0.0
53886.0,STARLINK-5028,PAYLOAD,2023-12-12 09:00:17,15.08871784,0.0001631,53.2181,37.9167,115.4602,244.6559,0.00015687,2.212e-05,0.0,0 STARLINK-5028,1 53886U 22119A   23346.37520459  .00002212  00000-0  15687-3 0  9995,2 53886  53.2181  37.9167 0001631 115.4602 244.6559 15.08871784 68148,6917.783,95.436,540.777,538.52,0.0
53886.0,STARLINK-5028,PAYLOAD,2023-12-13 08:51:05,15.08849532,0.0001672,53.2185,33.4553,112.6759,247.441,9.2823e-06,-1.4e-06,0.0,0 STARLINK-5028,1 53886U 22119A   23347.36881124 -.00000140  00000-0  92823-5 0  9992,2 53886  53.2185  33.4553 0001672 112.6759 247.4410 15.08849532 67871,6917.851,95.437,540.873,538.56,0.0
53886.0,STARLINK-5028,PAYLOAD,2023-12-14 10:17:15,15.08820292,0.000152,53.2172,28.6938,91.3152,268.8014,0.00037816,5.732e-05,0.0,0 STARLINK-5028,1 53886U 22119A   23348.42865655  .00005732  00000-0  37816-3 0  9991,2 53886  53.2172  28.6938 0001520  91.3152 268.8014 15.08820292 68030,6917.941,95.439,540.857,538.754,0.0
53886.0,STARLINK-5028,PAYLOAD,2023-12-15 10:08:02,15.08844367,0.0001442,53.2176,24.2357,82.8826,277.233,0.00013711,1.895e-05,0.0,0 STARLINK-5028,1 53886U 22119A   23349.42224770  .00001895  00000-0  13711-3 0  9993,2 53886  53.2176  24.2357 0001442  82.8826 277.2330 15.08844367 68187,6917.867,95.437,540.73,538.734,0.0
53886.0,STARLINK-5028,PAYLOAD,2023-12-16 09:58:50,15.08838277,0.0001685,53.2186,19.7725,70.0034,290.1139,3.1849e-05,2.19e-06,0.0,0 STARLINK-5028,1 53886U 22119A   23350.41585740  .00000219  00000-0  31849-4 0  9993,2 53886  53.2186  19.7725 0001685  70.0034 290.1139 15.08838277 68336,6917.886,95.438,540.916,538.585,0.0
53886.0,STARLINK-5028,PAYLOAD,2023-12-17 08:14:13,15.088454,0.0001467,53.2178,15.6118,79.5571,280.5587,2.731e-05,1.47e-06,0.0,0 STARLINK-5028,1 53886U 22119A   23351.34321360  .00000147  00000-0  27310-4 0  9990,2 53886  53.2178  15.6118 0001467  79.5571 280.5587 15.08845400 68893,6917.864,95.437,540.744,538.714,0.0
53886.0,STARLINK-5028,PAYLOAD,2023-12-18 08:05:00,15.08847181,0.0001496,53.2173,11.1473,76.3403,283.7755,0.00021239,3.094e-05,0.0,0 STARLINK-5028,1 53886U 22119A   23352.33681272  .00003094  00000-0  21239-3 0  9998,2 53886  53.2173  11.1473 0001496  76.3403 283.7755 15.08847181 69042,6917.858,95.437,540.758,538.689,0.0
53886.0,STARLINK-5028,PAYLOAD,2023-12-19 07:55:47,15.08840107,0.0001605,53.2174,6.688,112.747,247.3692,2.887e-05,1.71e-06,0.0,0 STARLINK-5028,1 53886U 22119A   23353.33041558  .00000171  00000-0  28870-4 0  9998,2 53886  53.2174   6.6880 0001605 112.7470 247.3692 15.08840107 68771,6917.88,95.438,540.855,538.635,0.0
53886.0,STARLINK-5028,PAYLOAD,2023-12-20 06:11:12,15.0883615,0.0001549,53.2171,2.5249,99.1515,260.9652,-2.9239e-05,-7.53e-06,0.0,0 STARLINK-5028,1 53886U 22119A   23354.25778148 -.00000753  00000-0 -29239-4 0  9990,2 53886  53.2171   2.5249 0001549  99.1515 260.9652 15.08836150 68913,6917.892,95.438,540.829,538.686,0.0
53886.0,STARLINK-5028,PAYLOAD,2023-12-21 07:37:22,15.08832125,0.000186,53.2179,357.767,108.3876,251.7318,0.00099942,0.0001565,0.0,0 STARLINK-5028,1 53886U 22119A   23355.31762619  .00015650  00000-0  99942-3 0  9991,2 53886  53.2179 357.7670 0001860 108.3876 251.7318 15.08832125 69076,6917.904,95.438,541.056,538.483,0.0
53886.0,STARLINK-5028,PAYLOAD,2023-12-22 07:28:09,15.08839675,0.0001411,53.2171,353.3067,94.3448,265.7705,2.39e-05,9.2e-07,0.0,0 STARLINK-5028,1 53886U 22119A   23356.31122101  .00000092  00000-0  23900-4 0  9994,2 53886  53.2171 353.3067 0001411  94.3448 265.7705 15.08839675 69220,6917.881,95.438,540.722,538.77,0.0
53886.0,STARLINK-5028,PAYLOAD,2023-12-23 07:18:56,15.08846873,0.0001633,53.2174,348.8496,76.1337,283.9836,0.00023743,3.493e-05,0.0,0 STARLINK-5028,1 53886U 22119A   23357.30482316  .00003493  00000-0  23743-3 0  9993,2 53886  53.2174 348.8496 0001633  76.1337 283.9836 15.08846873 69796,6917.859,95.437,540.854,538.595,0.0
53886.0,STARLINK-5028,PAYLOAD,2023-12-24 03:58:57,15.08839164,0.0001559,53.217,344.9826,81.4846,278.6323,0.00021586,3.149e-05,0.0,0 STARLINK-5028,1 53886U 22119A   23358.16594905  .00003149  00000-0  21586-3 0  9997,2 53886  53.2170 344.9826 0001559  81.4846 278.6323 15.08839164 69503,6917.883,95.438,540.826,538.669,0.0
53886.0,STARLINK-5028,PAYLOAD,2023-12-24 05:34:21,15.08840562,0.0001595,53.218,344.6856,79.4792,280.6379,0.00022744,3.334e-05,0.0,0 STARLINK-5028,1 53886U 22119A   23358.23218926  .00003334  00000-0  22744-3 0  9994,2 53886  53.2180 344.6856 0001595  79.4792 280.6379 15.08840562 69936,6917.879,95.438,540.847,538.64,0.0
53886.0,STARLINK-5028,PAYLOAD,2023-12-25 08:35:53,15.08856529,0.0001598,53.2171,339.6283,87.4588,272.6587,0.00042326,6.458e-05,0.0,0 STARLINK-5028,1 53886U 22119A   23359.35826296  .00006458  00000-0  42326-3 0  9991,2 53886  53.2171 339.6283 0001598  87.4588 272.6587 15.08856529 69683,6917.83,95.437,540.8,538.589,0.0
53886.0,STARLINK-5028,PAYLOAD,2023-12-26 03:40:31,15.08843179,0.0002064,53.2169,336.0505,135.048,225.068,4.1781e-05,3.77e-06,0.0,0 STARLINK-5028,1 53886U 22119A   23360.15314184  .00000377  00000-0  41781-4 0  9998,2 53886  53.2169 336.0505 0002064 135.0480 225.0680 15.08843179 69805,6917.871,95.437,541.164,538.308,0.0
53886.0,STARLINK-5028,PAYLOAD,2023-12-26 08:26:41,15.08843324,0.0001609,53.2175,335.1655,108.3612,251.7555,0.00014317,1.991e-05,0.0,0 STARLINK-5028,1 53886U 22119A   23360.35186675  .00001991  00000-0  14317-3 0  9999,2 53886  53.2175 335.1655 0001609 108.3612 251.7555 15.08843324 70252,6917.87,95.437,540.848,538.622,0.0
